{"type": "FeatureCollection", "features": [ {"type": "Feature", "properties": {"norad_id": 66819, "name": "STARLINK-35989", "group": "last-30-days", "lat": 12.89167124983296, "lon": -144.86442876952273, "alt_km": 387.4198860312945, "timestamp": "2025-12-21T03:56:49.616343+00:00", "meta": {"OBJECT_NAME": "STARLINK-35989", "OBJECT_ID": "2025-278AE", "EPOCH": "2025-12-20T20:00:01.999008", "MEAN_MOTION": 15.60992468, "ECCENTRICITY": 0.0001479, "INCLINATION": 42.9987, "RA_OF_ASC_NODE": 202.8821, "ARG_OF_PERICENTER": 255.6935, "MEAN_ANOMALY": 61.409, "EPHEMERIS_TYPE": 0, "CLASSIFICATION_TYPE": "U", "NORAD_CAT_ID": 66819, "ELEMENT_SET_NO": 999, "REV_AT_EPOCH": 426, "BSTAR": -0.025834, "MEAN_MOTION_DOT": -0.01963026, "MEAN_MOTION_DDOT": 0}, "tle": {"line1": "1 66819U 25278AE  25354.83335647 -.01963026  00000+0 -25834-1 0  9993", "line2": "2 66819  42.9987 202.8821 0001479 255.6935  61.4090 15.60992468  4262"}}, "geometry": {"type": "Point", "coordinates": [-144.86442876952273, 12.89167124983296]}}, {"type": "Feature", "properties": {"norad_id": 66820, "name": "KOMPSAT-7", "group": "last-30-days", "lat": 81.4898907599166, "lon": -122.91606457129869, "alt_km": 564.2010789872365, "timestamp": "2025-12-21T03:56:49.616351+00:00", "meta": {"OBJECT_NAME": "KOMPSAT-7", "OBJECT_ID": "2025-279A", "EPOCH": "2025-12-15T00:17:19.244256", "MEAN_MOTION": 15.0015594, "ECCENTRICITY": 0.00093948, "INCLINATION": 97.641, "RA_OF_ASC_NODE": 294.8339, "ARG_OF_PERICENTER": 252.0315, "MEAN_ANOMALY": 107.9885, "EPHEMERIS_TYPE": 0, "CLASSIFICATION_TYPE": "U", "NORAD_CAT_ID": 66820, "ELEMENT_SET_NO": 999, "REV_AT_EPOCH": 199, "BSTAR": 0.00025788518, "MEAN_MOTION_DOT": 3.163e-05, "MEAN_MOTION_DDOT": 0}, "tle": {"line1": "1 66820U 25279A   25349.01202829  .00003163  00000+0  25789-3 0  9990", "line2": "2 66820  97.6410 294.8339 0009394 252.0315 107.9885 15.00155940  1999"}}, "geometry": {"type": "Point", "coordinates": [-122.91606457129869, 81.4898907599166]}}, {"type": "Feature", "properties": {"norad_id": 66821, "name": "STARLINK-35966", "group": "last-30-days", "lat": -67.8069201496871, "lon": 112.10867678299175, "alt_km": 413.7571752151871, "timestamp": "2025-12-21T03:56:49.616361+00:00", "meta": {"OBJECT_NAME": "STARLINK-35966", "OBJECT_ID": "2025-280A", "EPOCH": "2025-12-20T20:00:01.999008", "MEAN_MOTION": 15.52482624, "ECCENTRICITY": 0.0003324, "INCLINATION": 69.9996, "RA_OF_ASC_NODE": 176.2487, "ARG_OF_PERICENTER": 273.3495, "MEAN_ANOMALY": 316.4561, "EPHEMERIS_TYPE": 0, "CLASSIFICATION_TYPE": "U", "NORAD_CAT_ID": 66821, "ELEMENT_SET_NO": 999, "REV_AT_EPOCH": 419, "BSTAR": 0.0009943, "MEAN_MOTION_DOT": 0.00061397, "MEAN_MOTION_DDOT": 0}, "tle": {"line1": "1 66821U 25280A   25354.83335647  .00061397  00000+0  99430-3 0  9991", "line2": "2 66821  69.9996 176.2487 0003324 273.3495 316.4561 15.52482624  4192"}}, "geometry": {"type": "Point", "coordinates": [112.10867678299175, -67.8069201496871]}}, {"type": "Feature", "properties": {"norad_id": 66822, "name": "STARLINK-35958", "group": "last-30-days", "lat": -66.93591476956254, "lon": 116.53251703482739, "alt_km": 413.76181756463757, "timestamp": "2025-12-21T03:56:49.616370+00:00", "meta": {"OBJECT_NAME": "STARLINK-35958", "OBJECT_ID": "2025-280B", "EPOCH": "2025-12-20T20:00:01.999008", "MEAN_MOTION": 15.52484208, "ECCENTRICITY": 0.0003317, "INCLINATION": 69.9995, "RA_OF_ASC_NODE": 176.2471, "ARG_OF_PERICENTER": 272.4369, "MEAN_ANOMALY": 319.2806, "EPHEMERIS_TYPE": 0, "CLASSIFICATION_TYPE": "U", "NORAD_CAT_ID": 66822, "ELEMENT_SET_NO": 999, "REV_AT_EPOCH": 419, "BSTAR": 0.0010191, "MEAN_MOTION_DOT": 0.00062948, "MEAN_MOTION_DDOT": 0}, "tle": {"line1": "1 66822U 25280B   25354.83335647  .00062948  00000+0  10191-2 0  9991", "line2": "2 66822  69.9995 176.2471 0003317 272.4369 319.2806 15.52484208  4190"}}, "geometry": {"type": "Point", "coordinates": [116.53251703482739, -66.93591476956254]}}, {"type": "Feature", "properties": {"norad_id": 66823, "name": "STARLINK-35957", "group": "last-30-days", "lat": -65.9483741497259, "lon": 120.63988492455783, "alt_km": 413.89337559389514, "timestamp": "2025-12-21T03:56:49.616379+00:00", "meta": {"OBJECT_NAME": "STARLINK-35957", "OBJECT_ID": "2025-280C", "EPOCH": "2025-12-20T20:00:01.999008", "MEAN_MOTION": 15.52481179, "ECCENTRICITY": 0.0003175, "INCLINATION": 69.9995, "RA_OF_ASC_NODE": 176.2446, "ARG_OF_PERICENTER": 269.9288, "MEAN_ANOMALY": 323.7109, "EPHEMERIS_TYPE": 0, "CLASSIFICATION_TYPE": "U", "NORAD_CAT_ID": 66823, "ELEMENT_SET_NO": 999, "REV_AT_EPOCH": 419, "BSTAR": 0.00098812, "MEAN_MOTION_DOT": 0.00061007, "MEAN_MOTION_DDOT": 0}, "tle": {"line1": "1 66823U 25280C   25354.83335647  .00061007  00000+0  98812-3 0  9994", "line2": "2 66823  69.9995 176.2446 0003175 269.9288 323.7109 15.52481179  4196"}}, "geometry": {"type": "Point", "coordinates": [120.63988492455783, -65.9483741497259]}}, {"type": "Feature", "properties": {"norad_id": 66824, "name": "STARLINK-35896", "group": "last-30-days", "lat": -64.86196413746055, "lon": 124.41899418998548, "alt_km": 413.8990886366546, "timestamp": "2025-12-21T03:56:49.616389+00:00", "meta": {"OBJECT_NAME": "STARLINK-35896", "OBJECT_ID": "2025-280D", "EPOCH": "2025-12-20T20:00:01.999008", "MEAN_MOTION": 15.52478155, "ECCENTRICITY": 0.0003169, "INCLINATION": 69.9996, "RA_OF_ASC_NODE": 176.2418, "ARG_OF_PERICENTER": 270.3845, "MEAN_ANOMALY": 325.1724, "EPHEMERIS_TYPE": 0, "CLASSIFICATION_TYPE": "U", "NORAD_CAT_ID": 66824, "ELEMENT_SET_NO": 999, "REV_AT_EPOCH": 419, "BSTAR": 0.0010613, "MEAN_MOTION_DOT": 0.00065567, "MEAN_MOTION_DDOT": 0}, "tle": {"line1": "1 66824U 25280D   25354.83335647  .00065567  00000+0  10613-2 0  9992", "line2": "2 66824  69.9996 176.2418 0003169 270.3845 325.1724 15.52478155  4194"}}, "geometry": {"type": "Point", "coordinates": [124.41899418998548, -64.86196413746055]}}, {"type": "Feature", "properties": {"norad_id": 66825, "name": "STARLINK-35476", "group": "last-30-days", "lat": -63.68378392650238, "lon": 127.90193919331357, "alt_km": 413.87938275989654, "timestamp": "2025-12-21T03:56:49.616400+00:00", "meta": {"OBJECT_NAME": "STARLINK-35476", "OBJECT_ID": "2025-280E", "EPOCH": "2025-12-20T20:00:01.999008", "MEAN_MOTION": 15.52481122, "ECCENTRICITY": 0.0003164, "INCLINATION": 69.9995, "RA_OF_ASC_NODE": 176.2393, "ARG_OF_PERICENTER": 272.3188, "MEAN_ANOMALY": 325.156, "EPHEMERIS_TYPE": 0, "CLASSIFICATION_TYPE": "U", "NORAD_CAT_ID": 66825, "ELEMENT_SET_NO": 999, "REV_AT_EPOCH": 404, "BSTAR": 0.001057, "MEAN_MOTION_DOT": 0.00065307, "MEAN_MOTION_DDOT": 0}, "tle": {"line1": "1 66825U 25280E   25354.83335647  .00065307  00000+0  10570-2 0  9997", "line2": "2 66825  69.9995 176.2393 0003164 272.3188 325.1560 15.52481122  4043"}}, "geometry": {"type": "Point", "coordinates": [127.90193919331357, -63.68378392650238]}}, {"type": "Feature", "properties": {"norad_id": 66826, "name": "STARLINK-35898", "group": "last-30-days", "lat": -62.43120204775106, "lon": 131.09117190007308, "alt_km": 413.9026868783849, "timestamp": "2025-12-21T03:56:49.616408+00:00", "meta": {"OBJECT_NAME": "STARLINK-35898", "OBJECT_ID": "2025-280F", "EPOCH": "2025-12-20T20:00:01.999008", "MEAN_MOTION": 15.52483077, "ECCENTRICITY": 0.0003134, "INCLINATION": 69.9996, "RA_OF_ASC_NODE": 176.2365, "ARG_OF_PERICENTER": 271.4607, "MEAN_ANOMALY": 327.9264, "EPHEMERIS_TYPE": 0, "CLASSIFICATION_TYPE": "U", "NORAD_CAT_ID": 66826, "ELEMENT_SET_NO": 999, "REV_AT_EPOCH": 419, "BSTAR": 0.0010904, "MEAN_MOTION_DOT": 0.00067395, "MEAN_MOTION_DDOT": 0}, "tle": {"line1": "1 66826U 25280F   25354.83335647  .00067395  00000+0  10904-2 0  9998", "line2": "2 66826  69.9996 176.2365 0003134 271.4607 327.9264 15.52483077  4195"}}, "geometry": {"type": "Point", "coordinates": [131.09117190007308, -62.43120204775106]}}, {"type": "Feature", "properties": {"norad_id": 66827, "name": "STARLINK-35959", "group": "last-30-days", "lat": -61.111782182108996, "lon": 134.01757856830986, "alt_km": 413.93387288468966, "timestamp": "2025-12-21T03:56:49.616418+00:00", "meta": {"OBJECT_NAME": "STARLINK-35959", "OBJECT_ID": "2025-280G", "EPOCH": "2025-12-20T20:00:01.999008", "MEAN_MOTION": 15.52482391, "ECCENTRICITY": 0.0003102, "INCLINATION": 69.9997, "RA_OF_ASC_NODE": 176.2343, "ARG_OF_PERICENTER": 271.2928, "MEAN_ANOMALY": 330.0112, "EPHEMERIS_TYPE": 0, "CLASSIFICATION_TYPE": "U", "NORAD_CAT_ID": 66827, "ELEMENT_SET_NO": 999, "REV_AT_EPOCH": 419, "BSTAR": 0.0010709, "MEAN_MOTION_DOT": 0.00066174, "MEAN_MOTION_DDOT": 0}, "tle": {"line1": "1 66827U 25280G   25354.83335647  .00066174  00000+0  10709-2 0  9996", "line2": "2 66827  69.9997 176.2343 0003102 271.2928 330.0112 15.52482391  4197"}}, "geometry": {"type": "Point", "coordinates": [134.01757856830986, -61.111782182108996]}}, {"type": "Feature", "properties": {"norad_id": 66828, "name": "STARLINK-35982", "group": "last-30-days", "lat": -58.303991997082676, "lon": 139.178369362936, "alt_km": 413.8999497122868, "timestamp": "2025-12-21T03:56:49.616427+00:00", "meta": {"OBJECT_NAME": "STARLINK-35982", "OBJECT_ID": "2025-280H", "EPOCH": "2025-12-20T20:00:01.999008", "MEAN_MOTION": 15.52482863, "ECCENTRICITY": 0.0003217, "INCLINATION": 69.9997, "RA_OF_ASC_NODE": 176.2307, "ARG_OF_PERICENTER": 270.1441, "MEAN_ANOMALY": 334.9943, "EPHEMERIS_TYPE": 0, "CLASSIFICATION_TYPE": "U", "NORAD_CAT_ID": 66828, "ELEMENT_SET_NO": 999, "REV_AT_EPOCH": 419, "BSTAR": 0.00096266, "MEAN_MOTION_DOT": 0.00059423, "MEAN_MOTION_DDOT": 0}, "tle": {"line1": "1 66828U 25280H   25354.83335647  .00059423  00000+0  96266-3 0  9999", "line2": "2 66828  69.9997 176.2307 0003217 270.1441 334.9943 15.52482863  4192"}}, "geometry": {"type": "Point", "coordinates": [139.178369362936, -58.303991997082676]}}]}